NORAD_CAT_ID,OBJECT_NAME,OBJECT_TYPE,EPOCH,MEAN_MOTION,ECCENTRICITY,INCLINATION,RA_OF_ASC_NODE,ARG_OF_PERICENTER,MEAN_ANOMALY,BSTAR,MEAN_MOTION_DOT,MEAN_MOTION_DDOT,TLE_LINE0,TLE_LINE1,TLE_LINE2,SEMIMAJOR_AXIS,PERIOD,APOGEE,PERIGEE,DECAYED
54011.0,STARLINK-5124,PAYLOAD,2024-07-12 14:32:10,15.08838458,0.000111,53.2168,40.5981,85.1942,274.9176,0.0001053,1.388e-05,0.0,0 STARLINK-5124,1 54011U 22125AZ  24194.60567374  .00001388  00000-0  10530-3 0  9993,2 54011  53.2168  40.5981 0001110  85.1942 274.9176 15.08838458 98257,6917.885,95.438,540.518,538.982,0.0
54011.0,STARLINK-5124,PAYLOAD,2024-07-12 20:53:42,15.08836493,0.0001146,53.2171,39.4083,83.2493,276.863,8.0034e-05,9.86e-06,0.0,0 STARLINK-5124,1 54011U 22125AZ  24194.87063589  .00000986  00000-0  80034-4 0  9991,2 54011  53.2171  39.4083 0001146  83.2493 276.8630 15.08836493 98343,6917.891,95.438,540.549,538.963,0.0
54011.0,STARLINK-5124,PAYLOAD,2024-07-13 06:26:01,15.08848297,0.0001363,53.218,37.6226,77.0132,283.1012,0.00015261,2.142e-05,0.0,0 STARLINK-5124,1 54011U 22125AZ  24195.26806736  .00002142  00000-0  15261-3 0  9999,2 54011  53.2180  37.6226 0001363  77.0132 283.1012 15.08848297 98401,6917.855,95.437,540.663,538.777,0.0
54011.0,STARLINK-5124,PAYLOAD,2024-07-13 22:19:51,15.08859513,0.0001155,53.2177,34.6484,81.1002,279.0121,0.00024591,3.63e-05,0.0,0 STARLINK-5124,1 54011U 22125AZ  24195.93045773  .00003630  00000-0  24591-3 0  9998,2 54011  53.2177  34.6484 0001155  81.1002 279.0121 15.08859513 98454,6917.821,95.436,540.485,538.887,0.0
54011.0,STARLINK-5124,PAYLOAD,2024-07-14 12:38:21,15.08820546,9.34e-05,53.2177,31.9724,90.9161,269.1938,-0.00026088,-4.435e-05,0.0,0 STARLINK-5124,1 54011U 22125AZ  24196.52663631 -.00004435  00000-0 -26088-3 0  9992,2 54011  53.2177  31.9724 0000934  90.9161 269.1938 15.08820546 98594,6917.94,95.439,540.451,539.159,0.0
54011.0,STARLINK-5124,PAYLOAD,2024-07-14 18:59:53,15.08834573,0.0001508,53.2185,30.7859,92.578,267.5385,-3.3104e-05,-8.15e-06,0.0,0 STARLINK-5124,1 54011U 22125AZ  24196.79159171 -.00000815  00000-0 -33104-4 0  9996,2 54011  53.2185  30.7859 0001508  92.5780 267.5385 15.08834573 98630,6917.897,95.438,540.805,538.719,0.0
54011.0,STARLINK-5124,PAYLOAD,2024-07-15 12:29:08,15.08828746,0.0001752,53.2169,27.5139,83.9247,276.1945,-0.00013429,-2.424e-05,0.0,0 STARLINK-5124,1 54011U 22125AZ  24197.52023562 -.00002424  00000-0 -13429-3 0  9997,2 54011  53.2169  27.5139 0001752  83.9247 276.1945 15.08828746 98699,6917.915,95.438,540.992,538.568,0.0
54011.0,STARLINK-5124,PAYLOAD,2024-07-15 20:26:03,15.08835525,0.0001214,53.2165,26.028,89.0783,271.0348,-0.00017296,-3.039e-05,0.0,0 STARLINK-5124,1 54011U 22125AZ  24197.85143232 -.00003039  00000-0 -17296-3 0  9999,2 54011  53.2165  26.0280 0001214  89.0783 271.0348 15.08835525 98796,6917.894,95.438,540.599,538.919,0.0
54011.0,STARLINK-5124,PAYLOAD,2024-07-16 12:19:55,15.0883705,0.0001187,53.2162,23.055,88.4826,271.6302,0.00027459,4.085e-05,0.0,0 STARLINK-5124,1 54011U 22125AZ  24198.51383511  .00004085  00000-0  27459-3 0  9991,2 54011  53.2162  23.0550 0001187  88.4826 271.6302 15.08837050 98847,6917.889,95.438,540.576,538.933,0.0
54011.0,STARLINK-5124,PAYLOAD,2024-07-16 18:41:27,15.08841636,0.000114,53.2167,21.8653,86.0303,274.0819,0.00030254,4.531e-05,0.0,0 STARLINK-5124,1 54011U 22125AZ  24198.77879405  .00004531  00000-0  30254-3 0  9994,2 54011  53.2167  21.8653 0001140  86.0303 274.0819 15.08841636 98884,6917.875,95.437,540.529,538.952,0.0
54011.0,STARLINK-5124,PAYLOAD,2024-07-17 05:49:09,15.08853947,0.0001277,53.2178,19.782,94.4747,265.6391,0.00039532,6.012e-05,0.0,0 STARLINK-5124,1 54011U 22125AZ  24199.24246760  .00006012  00000-0  39532-3 0  9993,2 54011  53.2178  19.7820 0001277  94.4747 265.6391 15.08853947 99008,6917.838,95.437,540.586,538.819,0.0
54011.0,STARLINK-5124,PAYLOAD,2024-07-17 18:32:14,15.08836357,0.0001208,53.2173,17.4018,108.5284,251.5839,5.024e-05,5.12e-06,0.0,0 STARLINK-5124,1 54011U 22125AZ  24199.77239457  .00000512  00000-0  50240-4 0  9995,2 54011  53.2173  17.4018 0001208 108.5284 251.5839 15.08836357 99089,6917.892,95.438,540.592,538.921,0.0
54011.0,STARLINK-5124,PAYLOAD,2024-07-18 12:01:30,15.08835586,0.0001481,53.2164,14.1381,56.6896,303.4238,0.00067649,0.00010493,0.0,0 STARLINK-5124,1 54011U 22125AZ  24200.50104492  .00010493  00000-0  67649-3 0  9998,2 54011  53.2164  14.1381 0001481  56.6896 303.4238 15.08835586 99141,6917.894,95.438,540.783,538.734,0.0
54011.0,STARLINK-5124,PAYLOAD,2024-07-18 18:23:02,15.0883043,0.0001362,53.2179,12.9462,85.5123,274.6025,0.00016211,2.292e-05,0.0,0 STARLINK-5124,1 54011U 22125AZ  24200.76600544  .00002292  00000-0  16211-3 0  9992,2 54011  53.2179  12.9462 0001362  85.5123 274.6025 15.08830430 99231,6917.91,95.438,540.717,538.832,0.0
54011.0,STARLINK-5124,PAYLOAD,2024-07-19 11:52:17,15.08840031,0.0001299,53.2177,9.6727,90.2034,269.9107,0.00037208,5.639e-05,0.0,0 STARLINK-5124,1 54011U 22125AZ  24201.49464608  .00005639  00000-0  37208-3 0  9999,2 54011  53.2177   9.6727 0001299  90.2034 269.9107 15.08840031 99291,6917.88,95.438,540.644,538.847,0.0
54011.0,STARLINK-5124,PAYLOAD,2024-07-19 18:13:49,15.08839113,0.000119,53.217,8.4831,89.2373,270.8755,0.00031144,4.672e-05,0.0,0 STARLINK-5124,1 54011U 22125AZ  24201.75960648  .00004672  00000-0  31144-3 0  9992,2 54011  53.2170   8.4831 0001190  89.2373 270.8755 15.08839113 99335,6917.883,95.438,540.571,538.925,0.0
54011.0,STARLINK-5124,PAYLOAD,2024-07-20 03:46:08,15.08857322,0.0001135,53.2182,6.6984,80.5011,279.6109,0.00046482,7.121e-05,0.0,0 STARLINK-5124,1 54011U 22125AZ  24202.15703782  .00007121  00000-0  46482-3 0  9994,2 54011  53.2182   6.6984 0001135  80.5011 279.6109 15.08857322 99443,6917.827,95.436,540.478,538.907,0.0
54011.0,STARLINK-5124,PAYLOAD,2024-07-20 10:07:41,15.08846518,0.0002158,53.2176,5.5116,80.3906,279.733,0.00031253,4.69e-05,0.0,0 STARLINK-5124,1 54011U 22125AZ  24202.42200480  .00004690  00000-0  31253-3 0  9999,2 54011  53.2176   5.5116 0002158  80.3906 279.7330 15.08846518 99484,6917.86,95.437,541.218,538.233,0.0
54011.0,STARLINK-5124,PAYLOAD,2024-07-20 14:53:50,15.08833286,0.0001162,53.2172,4.6192,88.2943,271.8183,-6.8556e-05,-1.379e-05,0.0,0 STARLINK-5124,1 54011U 22125AZ  24202.62072670 -.00001379  00000-0 -68556-4 0  9999,2 54011  53.2172   4.6192 0001162  88.2943 271.8183 15.08833286 99461,6917.901,95.438,540.57,538.962,0.0
54011.0,STARLINK-5124,PAYLOAD,2024-07-20 18:04:36,15.08838472,0.0001153,53.2175,4.0255,93.5971,266.5153,5.1686e-05,5.35e-06,0.0,0 STARLINK-5124,1 54011U 22125AZ  24202.75320546  .00000535  00000-0  51686-4 0  9998,2 54011  53.2175   4.0255 0001153  93.5971 266.5153 15.08838472 99536,6917.885,95.438,540.548,538.952,0.0
54011.0,STARLINK-5124,PAYLOAD,2024-07-21 03:36:55,15.08860041,0.0001058,53.2166,2.2338,57.2739,302.8355,0.00060509,9.36e-05,0.0,0 STARLINK-5124,1 54011U 22125AZ  24203.15063691  .00009360  00000-0  60509-3 0  9996,2 54011  53.2166   2.2338 0001058  57.2739 302.8355 15.08860041 99592,6917.819,95.436,540.416,538.952,0.0
54011.0,STARLINK-5124,PAYLOAD,2024-07-21 14:44:37,15.08835743,0.0001253,53.2173,0.1572,92.2507,267.8629,7.0609e-05,8.36e-06,0.0,0 STARLINK-5124,1 54011U 22125AZ  24203.61432523  .00000836  00000-0  70609-4 0  9993,2 54011  53.2173   0.1572 0001253  92.2507 267.8629 15.08835743 99614,6917.893,95.438,540.625,538.892,0.0
54011.0,STARLINK-5124,PAYLOAD,2024-07-21 17:55:23,15.08842983,0.0001425,53.2168,359.562,80.4847,279.6306,0.0005608,8.649e-05,0.0,0 STARLINK-5124,1 54011U 22125AZ  24203.74680549  .00008649  00000-0  56080-3 0  9996,2 54011  53.2168 359.5620 0001425  80.4847 279.6306 15.08842983 99684,6917.871,95.437,540.722,538.75,0.0
54011.0,STARLINK-5124,PAYLOAD,2024-07-24 04:44:40,15.08867579,0.0001,53.2166,348.5587,104.6668,255.4435,0.00085031,0.00013281,0.0,0 STARLINK-5124,1 54011U 22125AZ  24206.19768743  .00013281  00000-0  85031-3 0  9997,2 54011  53.2166 348.5587 0001000 104.6668 255.4435 15.08867579100058,6917.796,95.436,540.353,538.969,0.0
54011.0,STARLINK-5124,PAYLOAD,2024-07-24 11:06:13,15.08823955,0.0001256,53.2173,347.3718,76.2667,283.8465,0.00080591,0.00012556,0.0,0 STARLINK-5124,1 54011U 22125AZ  24206.46265189  .00012556  00000-0  80591-3 0  9993,2 54011  53.2173 347.3718 0001256  76.2667 283.8465 15.08823955100097,6917.929,95.439,540.663,538.926,0.0
54011.0,STARLINK-5124,PAYLOAD,2024-07-24 14:16:59,15.08833642,0.0001235,53.2175,346.7772,76.6758,283.4372,0.0012453,0.00019583,0.0,0 STARLINK-5124,1 54011U 22125AZ  24206.59513205  .00019583  00000-0  12453-2 0  9990,2 54011  53.2175 346.7772 0001235  76.6758 283.4372 15.08833642100068,6917.9,95.438,540.619,538.91,0.0
54011.0,STARLINK-5124,PAYLOAD,2024-07-24 20:38:31,15.0885384,0.000126,53.2171,345.5867,75.486,284.6272,0.0020872,0.00033099,0.0,0 STARLINK-5124,1 54011U 22125AZ  24206.86009113  .00033099  00000-0  20872-2 0  9990,2 54011  53.2171 345.5867 0001260  75.4860 284.6272 15.08853840100159,6917.838,95.437,540.575,538.831,0.0
54011.0,STARLINK-5124,PAYLOAD,2024-07-25 04:35:27,15.08852316,0.0001264,53.2172,344.1,74.3822,285.7309,0.0010058,0.00015761,0.0,0 STARLINK-5124,1 54011U 22125AZ  24207.19129002  .00015761  00000-0  10058-2 0  9998,2 54011  53.2172 344.1000 0001264  74.3822 285.7309 15.08852316100200,6917.843,95.437,540.582,538.833,0.0
54011.0,STARLINK-5124,PAYLOAD,2024-07-25 06:10:50,15.08837527,0.0001286,53.2173,343.8027,40.707,319.4018,0.00070342,0.00010924,0.0,0 STARLINK-5124,1 54011U 22125AZ  24207.25753377  .00010924  00000-0  70342-3 0  9992,2 54011  53.2173 343.8027 0001286  40.7070 319.4018 15.08837527100166,6917.888,95.438,540.643,538.863,0.0
54011.0,STARLINK-5124,PAYLOAD,2024-07-25 12:32:23,15.08842986,0.0001176,53.2172,342.613,82.6084,277.5042,0.0006483,0.00010046,0.0,0 STARLINK-5124,1 54011U 22125AZ  24207.52249148  .00010046  00000-0  64830-3 0  9998,2 54011  53.2172 342.6130 0001176  82.6084 277.5042 15.08842986100251,6917.871,95.437,540.55,538.923,0.0
